[{"OBJECT_NAME":"ZY-1 02D","OBJECT_ID":"2019-059A","EPOCH":"2026-03-09T22:47:25.027872","MEAN_MOTION":14.35449537,"ECCENTRICITY":0.00025574,"INCLINATION":98.3302,"RA_OF_ASC_NODE":133.9003,"ARG_OF_PERICENTER":74.5944,"MEAN_ANOMALY":285.5525,"EPHEMERIS_TYPE":0,"CLASSIFICATION_TYPE":"U","NORAD_CAT_ID":44528,"ELEMENT_SET_NO":999,"REV_AT_EPOCH":34010,"BSTAR":2.8589968e-5,"MEAN_MOTION_DOT":4.0e-7,"MEAN_MOTION_DDOT":0},{"OBJECT_NAME":"COSMOS 1275 DEB","OBJECT_ID":"1981-053PK","EPOCH":"2026-03-08T09:38:47.654016","MEAN_MOTION":14.32903002,"ECCENTRICITY":0.0025363,"INCLINATION":82.8497,"RA_OF_ASC_NODE":114.2905,"ARG_OF_PERICENTER":329.5376,"MEAN_ANOMALY":30.4337,"EPHEMERIS_TYPE":0,"CLASSIFICATION_TYPE":"U","NORAD_CAT_ID":42099,"ELEMENT_SET_NO":999,"REV_AT_EPOCH":52204,"BSTAR":0.0026552786,"MEAN_MOTION_DOT":7.296e-5,"MEAN_MOTION_DDOT":0}]
